{"type": "FeatureCollection", "features": [ {"type": "Feature", "properties": {"norad_id": 62339, "name": "GPS BIII-7  (PRN 01)", "group": "gps-ops", "lat": 48.19514313853767, "lon": 33.29189905204624, "alt_km": 20170.368770513433, "timestamp": "2025-12-18T10:51:26.064917+00:00", "meta": {"OBJECT_NAME": "GPS BIII-7  (PRN 01)", "OBJECT_ID": "2024-242A", "EPOCH": "2025-12-17T08:48:19.475712", "MEAN_MOTION": 2.00568159, "ECCENTRICITY": 0.00124883, "INCLINATION": 54.9223, "RA_OF_ASC_NODE": 341.5527, "ARG_OF_PERICENTER": 345.5623, "MEAN_ANOMALY": 16.1455, "EPHEMERIS_TYPE": 0, "CLASSIFICATION_TYPE": "U", "NORAD_CAT_ID": 62339, "ELEMENT_SET_NO": 999, "REV_AT_EPOCH": 761, "BSTAR": 0, "MEAN_MOTION_DOT": -8.8e-07, "MEAN_MOTION_DDOT": 0}, "tle": {"line1": "1 62339U 24242A   25351.36689208 -.00000088  00000+0  00000+0 0  9990", "line2": "2 62339  54.9223 341.5527 0012488 345.5623  16.1455  2.00568159  7610"}}, "geometry": {"type": "Point", "coordinates": [33.29189905204624, 48.19514313853767]}}, {"type": "Feature", "properties": {"norad_id": 64202, "name": "GPS BIII-8  (PRN 21)", "group": "gps-ops", "lat": -52.304669421441545, "lon": -77.11078319593967, "alt_km": 20179.51056534836, "timestamp": "2025-12-18T10:51:26.064945+00:00", "meta": {"OBJECT_NAME": "GPS BIII-8  (PRN 21)", "OBJECT_ID": "2025-116A", "EPOCH": "2025-12-14T02:46:13.653120", "MEAN_MOTION": 2.00558299, "ECCENTRICITY": 0.00056153, "INCLINATION": 55.1067, "RA_OF_ASC_NODE": 38.5851, "ARG_OF_PERICENTER": 308.147, "MEAN_ANOMALY": 55.2369, "EPHEMERIS_TYPE": 0, "CLASSIFICATION_TYPE": "U", "NORAD_CAT_ID": 64202, "ELEMENT_SET_NO": 999, "REV_AT_EPOCH": 416, "BSTAR": 0, "MEAN_MOTION_DOT": -9.6e-07, "MEAN_MOTION_DDOT": 0}, "tle": {"line1": "1 64202U 25116A   25348.11543580 -.00000096  00000+0  00000+0 0  9992", "line2": "2 64202  55.1067  38.5851 0005615 308.1470  55.2369  2.00558299  4161"}}, "geometry": {"type": "Point", "coordinates": [-77.11078319593967, -52.304669421441545]}}]}